[{"OBJECT_NAME":"NEOSSAT","OBJECT_ID":"2013-009D","EPOCH":"2026-03-09T11:41:06.061344","MEAN_MOTION":14.35785569,"ECCENTRICITY":0.00110325,"INCLINATION":98.4141,"RA_OF_ASC_NODE":250.8974,"ARG_OF_PERICENTER":177.9575,"MEAN_ANOMALY":182.1658,"EPHEMERIS_TYPE":0,"CLASSIFICATION_TYPE":"U","NORAD_CAT_ID":39089,"ELEMENT_SET_NO":999,"REV_AT_EPOCH":68243,"BSTAR":0.00010834728,"MEAN_MOTION_DOT":2.71e-6,"MEAN_MOTION_DDOT":0},{"OBJECT_NAME":"CZ-4 DEB","OBJECT_ID":"1990-081CK","EPOCH":"2026-03-08T14:34:28.481376","MEAN_MOTION":14.41506829,"ECCENTRICITY":0.00667021,"INCLINATION":98.4785,"RA_OF_ASC_NODE":130.4109,"ARG_OF_PERICENTER":151.1137,"MEAN_ANOMALY":209.377,"EPHEMERIS_TYPE":0,"CLASSIFICATION_TYPE":"U","NORAD_CAT_ID":23254,"ELEMENT_SET_NO":999,"REV_AT_EPOCH":66316,"BSTAR":0.00040925698,"MEAN_MOTION_DOT":1.32e-5,"MEAN_MOTION_DDOT":0}]
